{
  "links" : {
    "next" : "https://api.nasa.gov/neo/rest/v1/feed?start_date=2011-03-09&end_date=2011-03-09&detailed=true&api_key=t0TVs3DtDT2H8Oy2Zy8m2eVrNsAVKAexjcZXUckd",
    "prev" : "https://api.nasa.gov/neo/rest/v1/feed?start_date=2011-03-07&end_date=2011-03-07&detailed=true&api_key=t0TVs3DtDT2H8Oy2Zy8m2eVrNsAVKAexjcZXUckd",
    "self" : "https://api.nasa.gov/neo/rest/v1/feed?start_date=2011-03-08&end_date=2011-03-08&detailed=true&api_key=t0TVs3DtDT2H8Oy2Zy8m2eVrNsAVKAexjcZXUckd"
  },
  "element_count" : 9,
  "near_earth_objects" : {
    "2011-03-08" : [ {
      "links" : {
        "self" : "https://api.nasa.gov/neo/rest/v1/neo/2086667?api_key=t0TVs3DtDT2H8Oy2Zy8m2eVrNsAVKAexjcZXUckd"
      },
      "neo_reference_id" : "2086667",
      "name" : "86667 (2000 FO10)",
      "nasa_jpl_url" : "http://ssd.jpl.nasa.gov/sbdb.cgi?sstr=2086667",
      "absolute_magnitude_h" : 17.6,
      "estimated_diameter" : {
        "kilometers" : {
          "estimated_diameter_min" : 0.8027031673,
          "estimated_diameter_max" : 1.7948988478
        },
        "meters" : {
          "estimated_diameter_min" : 802.7031672829,
          "estimated_diameter_max" : 1794.8988477988
        },
        "miles" : {
          "estimated_diameter_min" : 0.4987764698,
          "estimated_diameter_max" : 1.115298092
        },
        "feet" : {
          "estimated_diameter_min" : 2633.5406593483,
          "estimated_diameter_max" : 5888.7759358124
        }
      },
      "is_potentially_hazardous_asteroid" : false,
      "close_approach_data" : [ {
        "close_approach_date" : "2011-03-08",
        "epoch_date_close_approach" : 1299571200000,
        "relative_velocity" : {
          "kilometers_per_second" : "25.1708943873",
          "kilometers_per_hour" : "90615.2197943423",
          "miles_per_hour" : "56304.7736549901"
        },
        "miss_distance" : {
          "astronomical" : "0.3060137483",
          "lunar" : "119.039352417",
          "kilometers" : "45779008",
          "miles" : "28445756"
        },
        "orbiting_body" : "Earth"
      } ],
      "orbital_data" : {
        "orbit_id" : "165",
        "orbit_determination_date" : "2017-05-09 06:47:42",
        "orbit_uncertainty" : "0",
        "minimum_orbit_intersection" : ".133291",
        "jupiter_tisserand_invariant" : "6.688",
        "epoch_osculation" : "2458000.5",
        "eccentricity" : ".5947315350636526",
        "semi_major_axis" : ".8593744787882035",
        "inclination" : "14.28774070214086",
        "ascending_node_longitude" : "208.3532417892282",
        "orbital_period" : "290.9860069980722",
        "perihelion_distance" : ".3482773758239688",
        "perihelion_argument" : "172.449202893704",
        "aphelion_distance" : "1.370471581752438",
        "perihelion_time" : "2457905.357327149116",
        "mean_anomaly" : "117.7079357858784",
        "mean_motion" : "1.23717289265523",
        "equinox" : "J2000"
      }
    }, {
      "links" : {
        "self" : "https://api.nasa.gov/neo/rest/v1/neo/2443972?api_key=t0TVs3DtDT2H8Oy2Zy8m2eVrNsAVKAexjcZXUckd"
      },
      "neo_reference_id" : "2443972",
      "name" : "443972 (2003 TN1)",
      "nasa_jpl_url" : "http://ssd.jpl.nasa.gov/sbdb.cgi?sstr=2443972",
      "absolute_magnitude_h" : 19.6,
      "estimated_diameter" : {
        "kilometers" : {
          "estimated_diameter_min" : 0.3195618867,
          "estimated_diameter_max" : 0.7145621017
        },
        "meters" : {
          "estimated_diameter_min" : 319.5618867213,
          "estimated_diameter_max" : 714.5621017269
        },
        "miles" : {
          "estimated_diameter_min" : 0.1985664891,
          "estimated_diameter_max" : 0.4440081677
        },
        "feet" : {
          "estimated_diameter_min" : 1048.4314204307,
          "estimated_diameter_max" : 2344.3639258298
        }
      },
      "is_potentially_hazardous_asteroid" : false,
      "close_approach_data" : [ {
        "close_approach_date" : "2011-03-08",
        "epoch_date_close_approach" : 1299571200000,
        "relative_velocity" : {
          "kilometers_per_second" : "10.0287198389",
          "kilometers_per_hour" : "36103.3914198881",
          "miles_per_hour" : "22433.243407541"
        },
        "miss_distance" : {
          "astronomical" : "0.4779374034",
          "lunar" : "185.9176483154",
          "kilometers" : "71498416",
          "miles" : "44427056"
        },
        "orbiting_body" : "Earth"
      } ],
      "orbital_data" : {
        "orbit_id" : "50",
        "orbit_determination_date" : "2017-04-06 09:20:24",
        "orbit_uncertainty" : "0",
        "minimum_orbit_intersection" : ".292795",
        "jupiter_tisserand_invariant" : "4.613",
        "epoch_osculation" : "2458000.5",
        "eccentricity" : ".1358804031244531",
        "semi_major_axis" : "1.432795124995879",
        "inclination" : "19.2328052642266",
        "ascending_node_longitude" : "13.69456966416127",
        "orbital_period" : "626.4329159011737",
        "perihelion_distance" : "1.238106345816687",
        "perihelion_argument" : "54.54049813911881",
        "aphelion_distance" : "1.62748390417507",
        "perihelion_time" : "2457990.123554961667",
        "mean_anomaly" : "5.963160809367608",
        "mean_motion" : ".5746824454173378",
        "equinox" : "J2000"
      }
    }, {
      "links" : {
        "self" : "https://api.nasa.gov/neo/rest/v1/neo/3558381?api_key=t0TVs3DtDT2H8Oy2Zy8m2eVrNsAVKAexjcZXUckd"
      },
      "neo_reference_id" : "3558381",
      "name" : "(2011 EC12)",
      "nasa_jpl_url" : "http://ssd.jpl.nasa.gov/sbdb.cgi?sstr=3558381",
      "absolute_magnitude_h" : 25.8,
      "estimated_diameter" : {
        "kilometers" : {
          "estimated_diameter_min" : 0.0183888672,
          "estimated_diameter_max" : 0.0411187571
        },
        "meters" : {
          "estimated_diameter_min" : 18.388867207,
          "estimated_diameter_max" : 41.1187571041
        },
        "miles" : {
          "estimated_diameter_min" : 0.0114263088,
          "estimated_diameter_max" : 0.0255500032
        },
        "feet" : {
          "estimated_diameter_min" : 60.3309310875,
          "estimated_diameter_max" : 134.9040630575
        }
      },
      "is_potentially_hazardous_asteroid" : false,
      "close_approach_data" : [ {
        "close_approach_date" : "2011-03-08",
        "epoch_date_close_approach" : 1299571200000,
        "relative_velocity" : {
          "kilometers_per_second" : "15.2512863886",
          "kilometers_per_hour" : "54904.6309989798",
          "miles_per_hour" : "34115.6025226716"
        },
        "miss_distance" : {
          "astronomical" : "0.0085592818",
          "lunar" : "3.3295607567",
          "kilometers" : "1280450.375",
          "miles" : "795634.9375"
        },
        "orbiting_body" : "Earth"
      } ],
      "orbital_data" : {
        "orbit_id" : "9",
        "orbit_determination_date" : "2017-04-06 08:54:16",
        "orbit_uncertainty" : "7",
        "minimum_orbit_intersection" : ".0037088",
        "jupiter_tisserand_invariant" : "5.922",
        "epoch_osculation" : "2458000.5",
        "eccentricity" : ".4509533843012976",
        "semi_major_axis" : "1.010080132470393",
        "inclination" : "11.55872815563377",
        "ascending_node_longitude" : "346.5641376954255",
        "orbital_period" : "370.7935494440339",
        "perihelion_distance" : ".5545810783173661",
        "perihelion_argument" : "295.80573582",
        "aphelion_distance" : "1.465579186623419",
        "perihelion_time" : "2457916.756809012752",
        "mean_anomaly" : "81.30548333597579",
        "mean_motion" : ".9708906763339931",
        "equinox" : "J2000"
      }
    } ]
  }
}